[{"OBJECT_NAME":"COSMOS 2251 DEB","OBJECT_TYPE":"DEBRIS","INTLDES":"93036AMA","TLE_LINE1":"1 35583U 93036AMA 16201.08228717 +.00000198 +00000-0 +21257-3 0  9998","TLE_LINE2":"2 35583 073.9235 345.0309 0395947 285.4058 070.3641 13.50654631360057","PERIOD":"106.614"},{"OBJECT_NAME":"COSMOS 2251 DEB","OBJECT_TYPE":"DEBRIS","INTLDES":"93036AMB","TLE_LINE1":"1 35584U 93036AMB 16215.66427288  .00001222  00000-0  55256-3 0  9997","TLE_LINE2":"2 35584  74.0883 313.7554 0149756  76.5668 285.2116 14.17225813369473","PERIOD":"101.606"},{"OBJECT_NAME":"COSMOS 2251 DEB","OBJECT_TYPE":"DEBRIS","INTLDES":"93036AMC","TLE_LINE1":"1 35585U 93036AMC 16215.38527985  .00000278  00000-0  24759-3 0  9996","TLE_LINE2":"2 35585  73.9759 233.0675 0331841 121.8629 303.3233 13.66199641369453","PERIOD":"105.401"},{"OBJECT_NAME":"COSMOS 2251 DEB","OBJECT_TYPE":"DEBRIS","INTLDES":"93036AMD","TLE_LINE1":"1 35586U 93036AMD 16215.08596156  .00000263  00000-0  27276-3 0  9991","TLE_LINE2":"2 35586  74.0249 358.5720 0409757 224.7747 260.4548 13.48767602362914","PERIOD":"106.764"},{"OBJECT_NAME":"COSMOS 2251 DEB","OBJECT_TYPE":"DEBRIS","INTLDES":"93036AME","TLE_LINE1":"1 35587U 93036AME 16212.57396019  .00000109  00000-0  24793-4 0  9990","TLE_LINE2":"2 35587  74.0050 185.5709 0112633 141.0873 219.8472 14.64485848391582","PERIOD":"98.328"},{"OBJECT_NAME":"COSMOS 2251 DEB","OBJECT_TYPE":"DEBRIS","INTLDES":"93036AMG","TLE_LINE1":"1 35589U 93036AMG 16214.28166869  .00004973  00000-0  27930-3 0  9998","TLE_LINE2":"2 35589  73.9621  71.9801 0102515  92.6645 268.6286 15.09155499389716","PERIOD":"95.417"},{"OBJECT_NAME":"COSMOS 2251 DEB","OBJECT_TYPE":"DEBRIS","INTLDES":"93036AMJ","TLE_LINE1":"1 35591U 93036AMJ 16215.09559331  .00000694  00000-0  17008-3 0  9992","TLE_LINE2":"2 35591  73.9907 359.4008 0044084 227.9058 131.8353 14.53867124383270","PERIOD":"99.046"},{"OBJECT_NAME":"COSMOS 2251 DEB","OBJECT_TYPE":"DEBRIS","INTLDES":"93036AMK","TLE_LINE1":"1 35592U 93036AMK 16213.31453207  .00000695  00000-0  73349-4 0  9993","TLE_LINE2":"2 35592  74.0098  77.4069 0122007 348.4812  11.3578 14.86333109390521","PERIOD":"96.882"},{"OBJECT_NAME":"COSMOS 2251 DEB","OBJECT_TYPE":"DEBRIS","INTLDES":"93036AML","TLE_LINE1":"1 35593U 93036AML 16214.46794684 -.00000079  00000-0 -26184-4 0  9991","TLE_LINE2":"2 35593  74.0867 250.6288 0118369  34.3752 326.4975 14.15803177367708","PERIOD":"101.709"},{"OBJECT_NAME":"COSMOS 2251 DEB","OBJECT_TYPE":"DEBRIS","INTLDES":"93036AMM","TLE_LINE1":"1 35594U 93036AMM 16212.54226764  .00000505  00000-0  12437-3 0  9995","TLE_LINE2":"2 35594  73.8189 249.6426 0061842 295.0076  64.4671 14.53979496384760","PERIOD":"99.038"},{"OBJECT_NAME":"COSMOS 2251 DEB","OBJECT_TYPE":"DEBRIS","INTLDES":"93036AMT","TLE_LINE1":"1 35600U 93036AMT 16203.04080273 +.00001949 +00000-0 +40619-3 0  9997","TLE_LINE2":"2 35600 073.9888 327.6864 0063311 228.7479 130.7370 14.59457013153322","PERIOD":"98.666"},{"OBJECT_NAME":"COSMOS 2251 DEB","OBJECT_TYPE":"DEBRIS","INTLDES":"93036AMV","TLE_LINE1":"1 35602U 93036AMV 16214.77524866 +.00000725 +00000-0 +51470-4 0  9991","TLE_LINE2":"2 35602 074.0247 337.4363 0176915 232.9767 279.3548 14.95462733387084","PERIOD":"96.291"},{"OBJECT_NAME":"COSMOS 2251 DEB","OBJECT_TYPE":"DEBRIS","INTLDES":"93036AMW","TLE_LINE1":"1 35603U 93036AMW 16187.57651635 +.00028726 +00000-0 +84553-3 0  9992","TLE_LINE2":"2 35603 073.9837 165.9863 0023329 183.4014 176.7036 15.34669148381867","PERIOD":"93.831"},{"OBJECT_NAME":"COSMOS 2251 DEB","OBJECT_TYPE":"DEBRIS","INTLDES":"93036AMX","TLE_LINE1":"1 35604U 93036AMX 16209.21011549  .00001287  00000-0  44712-3 0  9999","TLE_LINE2":"2 35604  74.0249 138.4349 0061287 291.4370  68.0252 14.35490865377429","PERIOD":"100.314"},{"OBJECT_NAME":"COSMOS 2251 DEB","OBJECT_TYPE":"DEBRIS","INTLDES":"93036AMY","TLE_LINE1":"1 35605U 93036AMY 16202.23642093 +.00001372 +00000-0 +38778-3 0  9999","TLE_LINE2":"2 35605 073.9049 045.5554 0109307 352.5241 007.4250 14.43228038378734","PERIOD":"99.776"},{"OBJECT_NAME":"COSMOS 2251 DEB","OBJECT_TYPE":"DEBRIS","INTLDES":"93036AMZ","TLE_LINE1":"1 35606U 93036AMZ 16214.18337273  .00000050  00000-0  70072-4 0  9994","TLE_LINE2":"2 35606  73.8086  34.2188 0470516  52.4044 311.8814 13.36949658354420","PERIOD":"107.707"},{"OBJECT_NAME":"COSMOS 2251 DEB","OBJECT_TYPE":"DEBRIS","INTLDES":"93036ANC","TLE_LINE1":"1 35609U 93036ANC 16212.40085253  .00011785  00000-0  82235-3 0  9998","TLE_LINE2":"2 35609  73.9907 230.9597 0003284 256.6987 103.3837 15.05428388386494","PERIOD":"95.653"},{"OBJECT_NAME":"COSMOS 2251 DEB","OBJECT_TYPE":"DEBRIS","INTLDES":"93036AND","TLE_LINE1":"1 35610U 93036AND 16215.39630589  .00004623  00000-0  64448-3 0  9998","TLE_LINE2":"2 35610  74.0031 340.9391 0019575 138.0283 222.2397 14.77893691374997","PERIOD":"97.435"},{"OBJECT_NAME":"COSMOS 2251 DEB","OBJECT_TYPE":"DEBRIS","INTLDES":"93036ANE","TLE_LINE1":"1 35611U 93036ANE 16214.31487610  .00000645  00000-0  21675-3 0  9990","TLE_LINE2":"2 35611  74.0306  78.5415 0041970 265.3685  94.2675 14.38694504379336","PERIOD":"100.090"},{"OBJECT_NAME":"COSMOS 2251 DEB","OBJECT_TYPE":"DEBRIS","INTLDES":"93036ANF","TLE_LINE1":"1 35612U 93036ANF 16215.86502075  .00007971  00000-0  57504-3 0  9994","TLE_LINE2":"2 35612  74.0073 142.2706 0017555  37.3215 322.9189 15.04144381381070","PERIOD":"95.735"},{"OBJECT_NAME":"COSMOS 2251 DEB","OBJECT_TYPE":"DEBRIS","INTLDES":"93036ANG","TLE_LINE1":"1 35613U 93036ANG 16214.87287541  .00002463  00000-0  28501-3 0  9999","TLE_LINE2":"2 35613  73.9830 170.1333 0039695 120.6987 270.7452 14.85565535387117","PERIOD":"96.932"},{"OBJECT_NAME":"COSMOS 2251 DEB","OBJECT_TYPE":"DEBRIS","INTLDES":"93036ANH","TLE_LINE1":"1 35614U 93036ANH 16209.67130293 +.00000429 +00000-0 +11540-3 0  9998","TLE_LINE2":"2 35614 073.9661 333.0348 0102613 255.4540 103.5221 14.48259519380075","PERIOD":"99.429"},{"OBJECT_NAME":"IRIDIUM 33 DEB","OBJECT_TYPE":"DEBRIS","INTLDES":"97051QM","TLE_LINE1":"1 35615U 97051QM  16215.44799811  .00008004  00000-0  66622-3 0  9997","TLE_LINE2":"2 35615  86.3582  16.3584 0010790  98.5177 261.7278 14.98498150385856","PERIOD":"96.096"},{"OBJECT_NAME":"IRIDIUM 33 DEB","OBJECT_TYPE":"DEBRIS","INTLDES":"97051QN","TLE_LINE1":"1 35616U 97051QN  16213.24299459 +.00000667 +00000-0 +17213-3 0  9996","TLE_LINE2":"2 35616 086.3653 037.7803 0019354 199.8750 160.1702 14.48481491378248","PERIOD":"99.414"},{"OBJECT_NAME":"IRIDIUM 33 DEB","OBJECT_TYPE":"DEBRIS","INTLDES":"97051QP","TLE_LINE1":"1 35617U 97051QP  16214.40477917  .00003601  00000-0  54635-3 0  9993","TLE_LINE2":"2 35617  86.4996  96.4556 0049403 173.4763 186.7109 14.72991694376529","PERIOD":"97.760"},{"OBJECT_NAME":"IRIDIUM 33 DEB","OBJECT_TYPE":"DEBRIS","INTLDES":"97051QQ","TLE_LINE1":"1 35618U 97051QQ  16214.25039610  .00000270  00000-0  73533-4 0  9999","TLE_LINE2":"2 35618  86.3409  31.4783 0031965 210.5458 149.3883 14.43440661378007","PERIOD":"99.761"},{"OBJECT_NAME":"IRIDIUM 33 DEB","OBJECT_TYPE":"DEBRIS","INTLDES":"97051QS","TLE_LINE1":"1 35620U 97051QS  16215.54811568  .00000864  00000-0  47132-3 0  9999","TLE_LINE2":"2 35620  86.3996 143.7809 0241869 118.0587 244.5276 13.97112422363993","PERIOD":"103.069"},{"OBJECT_NAME":"IRIDIUM 33 DEB","OBJECT_TYPE":"DEBRIS","INTLDES":"97051QU","TLE_LINE1":"1 35622U 97051QU  16215.89500786  .00001146  00000-0  34259-3 0  9996","TLE_LINE2":"2 35622  86.2263   5.5858 0021241 222.3445 291.3254 14.42008345379073","PERIOD":"99.860"},{"OBJECT_NAME":"IRIDIUM 33 DEB","OBJECT_TYPE":"DEBRIS","INTLDES":"97051QW","TLE_LINE1":"1 35624U 97051QW  16214.98345513  .00003316  00000-0  70909-3 0  9995","TLE_LINE2":"2 35624  86.3607  59.9571 0048423 260.3175  99.2562 14.57799517382037","PERIOD":"98.779"},{"OBJECT_NAME":"IRIDIUM 33 DEB","OBJECT_TYPE":"DEBRIS","INTLDES":"97051QX","TLE_LINE1":"1 35625U 97051QX  16208.32098470 +.00000530 +00000-0 +25576-3 0  9999","TLE_LINE2":"2 35625 086.1982 052.5781 0130931 245.0348 242.2544 14.12567210175193","PERIOD":"101.942"},{"OBJECT_NAME":"IRIDIUM 33 DEB","OBJECT_TYPE":"DEBRIS","INTLDES":"97051QZ","TLE_LINE1":"1 35627U 97051QZ  16212.27872736  .00002500  00000-0  66481-3 0  9994","TLE_LINE2":"2 35627  86.3524  57.6200 0034303 245.2444 114.5189 14.47892588377991","PERIOD":"99.454"},{"OBJECT_NAME":"IRIDIUM 33 DEB","OBJECT_TYPE":"DEBRIS","INTLDES":"97051RA","TLE_LINE1":"1 35628U 97051RA  16215.29159598  .00000614  00000-0  17668-3 0  9991","TLE_LINE2":"2 35628  86.3632  44.7971 0018215 206.4571 153.5702 14.43155663376117","PERIOD":"99.781"},{"OBJECT_NAME":"IRIDIUM 33 DEB","OBJECT_TYPE":"DEBRIS","INTLDES":"97051RB","TLE_LINE1":"1 35629U 97051RB  16215.05602094  .00002543  00000-0  60596-3 0  9991","TLE_LINE2":"2 35629  86.3817  78.7480 0100639 334.9506  24.6832 14.50337465372413","PERIOD":"99.287"},{"OBJECT_NAME":"IRIDIUM 33 DEB","OBJECT_TYPE":"DEBRIS","INTLDES":"97051RD","TLE_LINE1":"1 35631U 97051RD  16214.97333525 +.00000273 +00000-0 +77823-4 0  9994","TLE_LINE2":"2 35631 086.3668 041.9087 0016993 271.2399 241.6645 14.41570706378817","PERIOD":"99.891"},{"OBJECT_NAME":"IRIDIUM 33 DEB","OBJECT_TYPE":"DEBRIS","INTLDES":"97051RE","TLE_LINE1":"1 35632U 97051RE  16215.16079144  .00002251  00000-0  92966-3 0  9993","TLE_LINE2":"2 35632  86.4255 111.9390 0124100 132.1768 229.0042 14.22253660369515","PERIOD":"101.247"},{"OBJECT_NAME":"COSMOS 2251 DEB","OBJECT_TYPE":"DEBRIS","INTLDES":"93036ANJ","TLE_LINE1":"1 35643U 93036ANJ 16215.61556762  .00000769  00000-0  17256-3 0  9991","TLE_LINE2":"2 35643  74.0143 307.3764 0050060 198.4991 161.4355 14.57595663385219","PERIOD":"98.792"},{"OBJECT_NAME":"COSMOS 2251 DEB","OBJECT_TYPE":"DEBRIS","INTLDES":"93036ANK","TLE_LINE1":"1 35644U 93036ANK 16214.35562531 +.00003423 +00000-0 +34418-3 0  9992","TLE_LINE2":"2 35644 074.0103 188.7036 0027776 146.0969 214.1996 14.91382682390374","PERIOD":"96.554"}]